[{"OBJECT_NAME":"STARLINK-3543","OBJECT_ID":"2022-016C","EPOCH":"2026-03-09T22:36:23.819040","MEAN_MOTION":15.0881982,"ECCENTRICITY":8.647e-5,"INCLINATION":53.2185,"RA_OF_ASC_NODE":327.9877,"ARG_OF_PERICENTER":71.9815,"MEAN_ANOMALY":288.1271,"EPHEMERIS_TYPE":0,"CLASSIFICATION_TYPE":"U","NORAD_CAT_ID":51716,"ELEMENT_SET_NO":999,"REV_AT_EPOCH":22346,"BSTAR":-3.9694864e-5,"MEAN_MOTION_DOT":-9.19e-6,"MEAN_MOTION_DDOT":0},{"OBJECT_NAME":"PACE","OBJECT_ID":"2014-033N","EPOCH":"2026-03-09T22:47:44.809152","MEAN_MOTION":15.09745465,"ECCENTRICITY":0.00061206,"INCLINATION":98.125,"RA_OF_ASC_NODE":67.7953,"ARG_OF_PERICENTER":179.3374,"MEAN_ANOMALY":180.7863,"EPHEMERIS_TYPE":0,"CLASSIFICATION_TYPE":"U","NORAD_CAT_ID":40022,"ELEMENT_SET_NO":999,"REV_AT_EPOCH":63805,"BSTAR":0.00051174262,"MEAN_MOTION_DOT":8.193e-5,"MEAN_MOTION_DDOT":0}]
